TEVEL2-3                
1 63218U 25052J   26068.64540225  .00020365  00000+0  69446-3 0  9991
2 63218  97.3994 324.7775 0004761 105.7353 254.4413 15.30377031 54855
STARLINK-35475          
1 65865U 25223M   26067.92912022  .00014747  00000+0  50901-3 0  9992
2 65865  53.1572 297.3932 0001193  75.0810 285.0323 15.30202900 24095
